{
  "type": "FeatureCollection",
  "features": [
    {
      "type": "Feature",
      "properties": {
        "norad_id": 44204,
        "name": "BEIDOU-3 IGSO-1 (C38)",
        "group": "gnss",
        "lat": -28.4425177634214,
        "lon": 20.214217432308864,
        "alt_km": 35825.69209302116,
        "timestamp": "2025-12-09T11:33:55.042566+00:00",
        "meta_object_name": "BEIDOU-3 IGSO-1 (C38)",
        "meta_object_id": "2019-023A",
        "meta_epoch": "2025-11-19T14:15:02.708640",
        "meta_mean_motion": 1.00252177,
        "meta_eccentricity": 0.0026966,
        "meta_inclination": 58.4003,
        "meta_ra_of_asc_node": 39.8168,
        "meta_arg_of_pericenter": 221.2202,
        "meta_mean_anomaly": 126.9723,
        "meta_ephemeris_type": 0,
        "meta_classification_type": "U",
        "meta_norad_cat_id": 44204,
        "meta_element_set_no": 999,
        "meta_rev_at_epoch": 510,
        "meta_bstar": 0,
        "meta_mean_motion_dot": -2.26e-06,
        "meta_mean_motion_ddot": 0,
        "tle_line1": "1 44204U 19023A   25323.59378135 -.00000226  00000+0  00000+0 0  9994",
        "tle_line2": "2 44204  58.4003  39.8168 0026966 221.2202 126.9723  1.00252177  5102"
      },
      "geometry": {
        "type": "Point",
        "coordinates": [
          20.214217432308864,
          -28.4425177634214
        ]
      }
    },
    {
      "type": "Feature",
      "properties": {
        "norad_id": 44231,
        "name": "BEIDOU-2 G8 (C01)",
        "group": "gnss",
        "lat": -1.003732770224811,
        "lon": 36.581957320641806,
        "alt_km": 35773.3080755891,
        "timestamp": "2025-12-09T11:33:55.042588+00:00",
        "meta_object_name": "BEIDOU-2 G8 (C01)",
        "meta_object_id": "2019-027A",
        "meta_epoch": "2025-12-08T22:51:03.351168",
        "meta_mean_motion": 1.00268559,
        "meta_eccentricity": 0.0008514,
        "meta_inclination": 1.6519,
        "meta_ra_of_asc_node": 74.67,
        "meta_arg_of_pericenter": 254.7985,
        "meta_mean_anomaly": 235.7828,
        "meta_ephemeris_type": 0,
        "meta_classification_type": "U",
        "meta_norad_cat_id": 44231,
        "meta_element_set_no": 999,
        "meta_rev_at_epoch": 2417,
        "meta_bstar": 0,
        "meta_mean_motion_dot": -2.46e-06,
        "meta_mean_motion_ddot": 0,
        "tle_line1": "1 44231U 19027A   25342.95212212 -.00000246  00000+0  00000+0 0  9994",
        "tle_line2": "2 44231   1.6519  74.6700 0008514 254.7985 235.7828  1.00268559 24175"
      },
      "geometry": {
        "type": "Point",
        "coordinates": [
          36.581957320641806,
          -1.003732770224811
        ]
      }
    },
    {
      "type": "Feature",
      "properties": {
        "norad_id": 44299,
        "name": "COSMOS 2534 (758)",
        "group": "gnss",
        "lat": 38.25509126319901,
        "lon": -138.74472189995436,
        "alt_km": 19136.93791631479,
        "timestamp": "2025-12-09T11:33:55.042609+00:00",
        "meta_object_name": "COSMOS 2534 (758)",
        "meta_object_id": "2019-030A",
        "meta_epoch": "2025-12-09T05:29:56.086368",
        "meta_mean_motion": 2.13102103,
        "meta_eccentricity": 0.0009006,
        "meta_inclination": 64.3653,
        "meta_ra_of_asc_node": 199.0114,
        "meta_arg_of_pericenter": 283.3894,
        "meta_mean_anomaly": 286.0531,
        "meta_ephemeris_type": 0,
        "meta_classification_type": "U",
        "meta_norad_cat_id": 44299,
        "meta_element_set_no": 999,
        "meta_rev_at_epoch": 5087,
        "meta_bstar": 0,
        "meta_mean_motion_dot": 4.4e-07,
        "meta_mean_motion_ddot": 0,
        "tle_line1": "1 44299U 19030A   25343.22912137  .00000044  00000+0  00000+0 0  9991",
        "tle_line2": "2 44299  64.3653 199.0114 0009006 283.3894 286.0531  2.13102103 50872"
      },
      "geometry": {
        "type": "Point",
        "coordinates": [
          -138.74472189995436,
          38.25509126319901
        ]
      }
    },
    {
      "type": "Feature",
      "properties": {
        "norad_id": 44337,
        "name": "BEIDOU-3 IGSO-2 (C39)",
        "group": "gnss",
        "lat": -25.05779831286311,
        "lon": -0.49949177291384095,
        "alt_km": 35634.53033363042,
        "timestamp": "2025-12-09T11:33:55.042630+00:00",
        "meta_object_name": "BEIDOU-3 IGSO-2 (C39)",
        "meta_object_id": "2019-035A",
        "meta_epoch": "2025-12-08T21:18:38.600064",
        "meta_mean_motion": 1.00272014,
        "meta_eccentricity": 0.0037301,
        "meta_inclination": 55.2241,
        "meta_ra_of_asc_node": 160.5341,
        "meta_arg_of_pericenter": 202.3504,
        "meta_mean_anomaly": 154.1975,
        "meta_ephemeris_type": 0,
        "meta_classification_type": "U",
        "meta_norad_cat_id": 44337,
        "meta_element_set_no": 999,
        "meta_rev_at_epoch": 2375,
        "meta_bstar": 0,
        "meta_mean_motion_dot": -7.9e-07,
        "meta_mean_motion_ddot": 0,
        "tle_line1": "1 44337U 19035A   25342.88794676 -.00000079  00000+0  00000+0 0  9995",
        "tle_line2": "2 44337  55.2241 160.5341 0037301 202.3504 154.1975  1.00272014 23758"
      },
      "geometry": {
        "type": "Point",
        "coordinates": [
          -0.49949177291384095,
          -25.05779831286311
        ]
      }
    },
    {
      "type": "Feature",
      "properties": {
        "norad_id": 44506,
        "name": "GPS BIII-2  (PRN 18)",
        "group": "gnss",
        "lat": -22.964973945558512,
        "lon": 175.47179953289464,
        "alt_km": 20034.046964323425,
        "timestamp": "2025-12-09T11:33:55.042648+00:00",
        "meta_object_name": "GPS BIII-2  (PRN 18)",
        "meta_object_id": "2019-056A",
        "meta_epoch": "2025-12-08T22:40:04.403424",
        "meta_mean_motion": 2.00566001,
        "meta_eccentricity": 0.0057777,
        "meta_inclination": 55.7226,
        "meta_ra_of_asc_node": 338.7027,
        "meta_arg_of_pericenter": 198.4897,
        "meta_mean_anomaly": 341.515,
        "meta_ephemeris_type": 0,
        "meta_classification_type": "U",
        "meta_norad_cat_id": 44506,
        "meta_element_set_no": 999,
        "meta_rev_at_epoch": 4625,
        "meta_bstar": 0,
        "meta_mean_motion_dot": -8.5e-07,
        "meta_mean_motion_ddot": 0,
        "tle_line1": "1 44506U 19056A   25342.94449541 -.00000085  00000+0  00000+0 0  9998",
        "tle_line2": "2 44506  55.7226 338.7027 0057777 198.4897 341.5150  2.00566001 46253"
      },
      "geometry": {
        "type": "Point",
        "coordinates": [
          175.47179953289464,
          -22.964973945558512
        ]
      }
    },
    {
      "type": "Feature",
      "properties": {
        "norad_id": 44542,
        "name": "BEIDOU-3 M24 (C46)",
        "group": "gnss",
        "lat": -28.267243302131618,
        "lon": 31.79505141663331,
        "alt_km": 21558.09287683328,
        "timestamp": "2025-12-09T11:33:55.042666+00:00",
        "meta_object_name": "BEIDOU-3 M24 (C46)",
        "meta_object_id": "2019-061A",
        "meta_epoch": "2025-12-08T02:04:30.505152",
        "meta_mean_motion": 1.86229279,
        "meta_eccentricity": 0.00095745,
        "meta_inclination": 54.4002,
        "meta_ra_of_asc_node": 189.1732,
        "meta_arg_of_pericenter": 24.5539,
        "meta_mean_anomaly": 335.5587,
        "meta_ephemeris_type": 0,
        "meta_classification_type": "U",
        "meta_norad_cat_id": 44542,
        "meta_element_set_no": 999,
        "meta_rev_at_epoch": 4223,
        "meta_bstar": 0,
        "meta_mean_motion_dot": 5.3e-07,
        "meta_mean_motion_ddot": 0,
        "tle_line1": "1 44542U 19061A   25342.08646418  .00000053  00000+0  00000+0 0  9995",
        "tle_line2": "2 44542  54.4002 189.1732 0009574  24.5539 335.5587  1.86229279 42233"
      },
      "geometry": {
        "type": "Point",
        "coordinates": [
          31.79505141663331,
          -28.267243302131618
        ]
      }
    },
    {
      "type": "Feature",
      "properties": {
        "norad_id": 44543,
        "name": "BEIDOU-3 M23 (C45)",
        "group": "gnss",
        "lat": 39.504299072272005,
        "lon": -27.112929086660753,
        "alt_km": 21528.05960875595,
        "timestamp": "2025-12-09T11:33:55.042686+00:00",
        "meta_object_name": "BEIDOU-3 M23 (C45)",
        "meta_object_id": "2019-061B",
        "meta_epoch": "2025-12-08T18:00:07.463232",
        "meta_mean_motion": 1.8622754,
        "meta_eccentricity": 0.00060873,
        "meta_inclination": 54.3989,
        "meta_ra_of_asc_node": 189.119,
        "meta_arg_of_pericenter": 23.0878,
        "meta_mean_anomaly": 334.736,
        "meta_ephemeris_type": 0,
        "meta_classification_type": "U",
        "meta_norad_cat_id": 44543,
        "meta_element_set_no": 999,
        "meta_rev_at_epoch": 4224,
        "meta_bstar": 0,
        "meta_mean_motion_dot": 5e-07,
        "meta_mean_motion_ddot": 0,
        "tle_line1": "1 44543U 19061B   25342.75008638  .00000050  00000+0  00000+0 0  9993",
        "tle_line2": "2 44543  54.3989 189.1190 0006087  23.0878 334.7360  1.86227540 42241"
      },
      "geometry": {
        "type": "Point",
        "coordinates": [
          -27.112929086660753,
          39.504299072272005
        ]
      }
    }
  ]
}